IRIDIUM 155             
1 43573U 18061E   22314.32335281  .00000310  00000+0  10359-3 0  9991
2 43573  86.3982 246.1236 0002107  75.5174 284.6255 14.34224515224891
IRIDIUM 154             
1 43574U 18061F   22313.25778539  .00000339  00000+0  11403-3 0  9992
2 43574  86.3983 246.6389 0002369  88.7067 271.4400 14.34226016224797
IRIDIUM 163             
1 43575U 18061G   22314.35507645  .00000345  00000+0  11599-3 0  9996
2 43575  86.3982 246.1362 0001924  91.4730 268.6686 14.34217023224924
IRIDIUM 156             
1 43576U 18061H   22314.32970723  .00000349  00000+0  11755-3 0  9993
2 43576  86.3981 246.1524 0001839  82.5036 277.6369 14.34214818224915
IRIDIUM 164             
1 43577U 18061J   22314.10135553  .00000343  00000+0  11543-3 0  9993
2 43577  86.4003 246.2662 0002729  86.5228 273.6280 14.34220057224923
IRIDIUM 159             
1 43578U 18061K   22313.86032501  .00000347  00000+0  11682-3 0  9993
2 43578  86.3982 246.3333 0002310  87.8905 272.2555 14.34227355224857
IRIDIUM 180             
1 43922U 19002A   22314.55754185  .00000311  00000+0  10403-3 0  9999
2 43922  86.4017 183.0059 0002310  95.9941 264.1518 14.34218143200568
IRIDIUM 176             
1 43923U 19002B   22314.39166025  .00001015  00000+0  15700-3 0  9999
2 43923  86.6153 183.1147 0002422  85.3254 274.8240 14.72264203205807
IRIDIUM 168             
1 43924U 19002C   22314.55119774  .00000310  00000+0  10356-3 0  9996
2 43924  86.4020 183.0486 0002247  89.3662 270.7792 14.34218563200545
IRIDIUM 173             
1 43925U 19002D   22314.18966879  .00000312  00000+0  10447-3 0  9995
2 43925  86.4017 183.1420 0002193  89.8224 270.3223 14.34217554200476
IRIDIUM 169             
1 43926U 19002E   22314.43957533  .00000437  00000+0  13645-3 0  9992
2 43926  86.4283 214.5823 0004748  19.3826 340.7552 14.38610092201209
IRIDIUM 172             
1 43927U 19002F   22314.39262337  .00000311  00000+0  10406-3 0  9992
2 43927  86.4017 183.0614 0002259  93.2651 266.8803 14.34221000200518
IRIDIUM 175             
1 43928U 19002G   22314.18157298  .00001037  00000+0  16049-3 0  9994
2 43928  86.6154 183.0371 0002491  85.3066 274.8435 14.72266802205766
IRIDIUM 171             
1 43929U 19002H   22314.16429519  .00000310  00000+0  10359-3 0  9992
2 43929  86.4029 183.3165 0002279  89.5355 270.6102 14.34215649200470
IRIDIUM 170             
1 43930U 19002J   22314.19393719  .00001035  00000+0  16021-3 0  9996
2 43930  86.6153 183.2024 0002453  87.4276 272.7222 14.72265721205781
IRIDIUM 167             
1 43931U 19002K   22314.36725972  .00000190  00000+0  60661-4 0  9997
2 43931  86.4018 183.0827 0002303  93.5343 266.6116 14.34216913200502
